STARLINK-37307          
1 68681U 26077V   26112.53418956 -.00368354  00000+0 -24484-2 0  9998
2 68681  97.2838 343.6094 0000570  98.0903 262.0427 15.76361279  1818
