{
  "norad_id": 68681,
  "name": "STARLINK-37307",
  "history": [
    {
      "epoch": "2026-04-22T12:49:13.977984Z",
      "apogee_km": 341.1436720540023,
      "perigee_km": 340.37691149506463,
      "latitude_deg": -5.2466523882763304e-05,
      "longitude_deg": -59.293230494403055,
      "height_km": 343.9833022254336,
      "semi_major_axis_km": 6718.897291774533,
      "eccentricity": 5.706e-05,
      "inclination_deg": 97.2838,
      "raan_deg": 343.6094,
      "arg_perigee_deg": 98.0903,
      "mean_anomaly_deg": 262.0427,
      "mean_motion_rev_day": 15.76361279
    }
  ]
}